MOLNIYA 1-29            
1 07780U 75036A   17346.37943948  .00000224  00000-0 -38799-3 0  9999
2 07780  61.6962 104.2679 7411534 275.8028  12.0683  2.00561388312582
